ONEWEB-0325             
1 49194U 21083J   22171.78141523 -.00000008  00000+0 -52897-4 0  9999
2 49194  87.9127 264.9238 0002415 120.5728 239.5643 13.18690503 39217
ONEWEB-0326             
1 49195U 21083K   22171.79226326 -.00000031  00000+0 -11029-3 0  9993
2 49195  87.9134 265.0185 0002594  87.8150 272.3279 13.18687507 39200
ONEWEB-0327             
1 49196U 21083L   22171.77677587  .00000049  00000+0  92162-4 0  9996
2 49196  87.9142 264.9931 0002639  84.4012 275.7421 13.18688766 39223
ONEWEB-0328             
1 49197U 21083M   22171.71596424 -.00000164  00000+0 -48271-3 0  9992
2 49197  87.8968 249.7671 0002230 100.3238 259.8142 13.13470511 40863
ONEWEB-0331             
1 49198U 21083N   22171.78760830  .00000016  00000+0  67293-5 0  9995
2 49198  87.9144 265.0351 0002359  93.9492 266.1910 13.18685266 39219
ONEWEB-0333             
1 49199U 21083P   22171.78764800 -.00000327  00000+0 -93151-3 0  9994
2 49199  87.8969 249.7544 0001849 109.8316 250.3012 13.13472115 40887
ONEWEB-0334             
1 49200U 21083Q   22171.91667824  .00000312  00000+0  29407-4 0  9996
2 49200  87.2047 229.1782 0001573  28.7737 206.0857 14.90189318 42958
ONEWEB-0335             
1 49201U 21083R   22171.70700356 -.00000323  00000+0 -91851-3 0  9997
2 49201  87.8962 249.7724 0002424  98.4307 261.7097 13.13466321 40888
ONEWEB-0336             
1 49202U 21083S   22171.75180594  .00000208  00000+0  53404-3 0  9991
2 49202  87.8972 249.7570 0002049 103.8930 256.2428 13.13469322 40897
ONEWEB-0337             
1 49203U 21083T   22171.77420208 -.00001791  00000+0 -49395-2 0  9996
2 49203  87.9096 249.7570 0002026 104.6302 255.5051 13.13473164 40896
ONEWEB-0338             
1 49204U 21083U   22171.91667824 -.00000369  00000+0 -41016-4 0  9994
2 49204  87.2107 229.3865 0003216  42.7706  94.0897 14.90203272 42956
ONEWEB-0339             
1 49205U 21083V   22171.76972969 -.00000162  00000+0 -47974-3 0  9996
2 49205  87.8969 249.7527 0002203 113.2300 246.9061 13.13467475 40870
ONEWEB-0340             
1 49206U 21083W   22171.77521967  .00000041  00000+0  71382-4 0  9991
2 49206  87.9132 265.0342 0002170 100.9553 259.1823 13.18684419 39184
ONEWEB-0341             
1 49207U 21083X   22171.55533816  .00000022  00000+0  24204-4 0  9994
2 49207  87.9154 264.9939 0002939 117.9311 242.2119 13.18685436 37888
ONEWEB-0342             
1 49208U 21083Y   22171.91667824  .00003188  00000+0  32633-3 0  9992
2 49208  87.2069 229.2507 0003249  42.4022 262.8331 14.90212908 42957
ONEWEB-0343             
1 49209U 21083Z   22171.77986178  .00000068  00000+0  13875-3 0  9994
2 49209  87.9144 264.9939 0002889 128.0882 232.0511 13.18685214 39259
ONEWEB-0344             
1 49210U 21083AA  22171.73833917  .00000293  00000+0  76833-3 0  9997
2 49210  87.8971 249.7627 0002094 100.7234 259.4131 13.13474363 40876
ONEWEB-0345             
1 49211U 21083AB  22171.75627609  .00000188  00000+0  48017-3 0  9995
2 49211  87.8962 249.7562 0002870  97.2488 262.8968 13.13468235 40886
ONEWEB-0346             
1 49212U 21083AC  22171.78606618  .00000067  00000+0  13677-3 0  9996
2 49212  87.9142 264.9852 0002509  89.9722 270.1697 13.18684970 39191
ONEWEB-0348             
1 49213U 21083AD  22171.91667824  .00001368  00000+0  13844-3 0  9999
2 49213  87.2093 229.3394 0002380  43.7925 218.2540 14.90209406 42952
ONEWEB-0350             
1 49214U 21083AE  22171.76523718 -.00000091  00000+0 -28382-3 0  9993
2 49214  87.8967 249.7726 0003040 103.1768 256.9700 13.13470884 40919
ONEWEB-0351             
1 49215U 21083AF  22171.91667824  .00002995  00000+0  30656-3 0  9998
2 49215  87.2029 229.1040 0001690  47.0378 339.2822 14.90194397 42961
ONEWEB-0352             
1 49216U 21083AG  22171.74733530  .00000323  00000+0  84870-3 0  9998
2 49216  87.8967 249.7595 0001693 104.3866 255.7451 13.13468260 41005
ONEWEB-0354             
1 49217U 21083AH  22171.91667824  .00002350  00000+0  23990-3 0  9998
2 49217  87.2078 229.2737 0002310  63.8700 216.4511 14.90205331 42979
ONEWEB-0355             
1 49218U 21083AJ  22171.77866824 -.00000318  00000+0 -90627-3 0  9999
2 49218  87.8976 249.7530 0002206 110.6297 249.5068 13.13470995 40883
ONEWEB-0357             
1 49219U 21083AK  22171.91667824 -.00000470  00000+0 -51436-4 0  9990
2 49219  87.2073 229.2667 0003313  42.8506 176.2510 14.90212543 42956
ONEWEB-0332             
1 49279U 21090A   22171.91667824  .00013932  00000+0  37492-1 0  9992
2 49279  87.9053 219.3465 0001598 112.5019 111.0703 13.14493665 36124
ONEWEB-0347             
1 49280U 21090B   22171.91667824  .00025864  00000+0  96759-2 0  9993
2 49280  87.6939 215.8450 0005068 114.1803 334.6383 14.31635367 36737
ONEWEB-0349             
1 49281U 21090C   22171.91667824 -.01287419  00000+0 -54392+0 0  9997
2 49281  87.4949 205.8804 0004350 104.9873  95.4936 14.29255106 38527
ONEWEB-0353             
1 49282U 21090D   22171.91667824  .00012785  00000+0  34409-1 0  9996
2 49282  87.9102 219.3638 0001575 102.2560 161.3085 13.14492087 37418
ONEWEB-0356             
1 49283U 21090E   22171.91667824 -.01218349  00000+0 -49624+0 0  9997
2 49283  87.5002 205.8510 0005366 108.9724 306.6131 14.30944245 38526
ONEWEB-0358             
1 49284U 21090F   22171.91667824  .00040101  00000+0  42717-2 0  9993
2 49284  87.5214 210.1220 0004541 112.5412  25.2304 14.88715147 38535
ONEWEB-0359             
1 49285U 21090G   22171.91667824  .00042157  00000+0  44903-2 0  9996
2 49285  87.5240 210.1349 0004121 108.2798 104.9413 14.88709388 38514
ONEWEB-0360             
1 49286U 21090H   22171.91667824 -.01223708  00000+0 -48225+0 0  9991
2 49286  87.5070 205.8776 0006558 134.0916  18.7140 14.32645971 38522
ONEWEB-0361             
1 49287U 21090J   22171.91667824 -.01210123  00000+0 -48509+0 0  9994
2 49287  87.4968 205.8444 0003997 111.6857  84.5190 14.31743350 38524
ONEWEB-0362             
1 49288U 21090K   22171.58334491  .00042106  00000+0  10468+0 0  9993
2 49288  87.9120 234.6409 0001728  93.4348 182.5419 13.19709510  1307
ONEWEB-0363             
1 49289U 21090L   22171.91667824 -.01249447  00000+0 -49392+0 0  9998
2 49289  87.4886 205.8859 0004799  89.7192  53.4371 14.32566088 38521
ONEWEB-0364             
1 49290U 21090M   22171.91667824  .00026355  00000+0  10632-1 0  9995
2 49290  87.6877 215.9948 0003695  99.8158 218.4347 14.27789536 37977
ONEWEB-0365             
1 49291U 21090N   22171.58334491  .00044067  00000+0  10954+0 0  9995
2 49291  87.9231 234.6469 0002183 101.3924 145.1122 13.19706173  1303
ONEWEB-0366             
1 49292U 21090P   22171.91667824  .00012522  00000+0  33696-1 0  9993
2 49292  87.9071 219.3560 0001704  92.8043 190.7783 13.14499485 37412
ONEWEB-0367             
1 49293U 21090Q   22171.91667824 -.01238209  00000+0 -49499+0 0  9995
2 49293  87.4811 205.9349 0006039 130.9985 344.4977 14.31957314 38527
ONEWEB-0368             
1 49294U 21090R   22171.91667824  .00025703  00000+0  10371-1 0  9995
2 49294  87.6904 215.9549 0004214 126.6408 321.8634 14.27783484 37990
ONEWEB-0369             
1 49295U 21090S   22171.58334491  .00043067  00000+0  10706+0 0  9993
2 49295  87.9240 234.6077 0001816  96.6835 164.5826 13.19709161  1307
ONEWEB-0370             
1 49296U 21090T   22171.91667824 -.01186206  00000+0 -44191+0 0  9991
2 49296  87.5230 205.8115 0003737 109.1372 262.9243 14.35408963 38554
ONEWEB-0371             
1 49297U 21090U   22171.91667824 -.00009443  00000+0 -23643-1 0  9999
2 49297  87.9232 234.4793 0002298  99.4906 275.0812 13.19728479 35536
ONEWEB-0372             
1 49298U 21090V   22171.91667824 -.01190344  00000+0 -47422+0 0  9991
2 49298  87.5019 205.8167 0005154 135.1427 175.1041 14.32001393 38524
ONEWEB-0373             
1 49299U 21090W   22171.91667824  .00026239  00000+0  98146-2 0  9992
2 49299  87.6900 215.8070 0006174 147.1331 151.9730 14.31638057 38023
ONEWEB-0374             
1 49300U 21090X   22171.91667824  .00012476  00000+0  33578-1 0  9990
2 49300  87.9098 219.3638 0001885  91.9032 196.7596 13.14489646 37400
ONEWEB-0375             
1 49301U 21090Y   22171.91667824  .00040765  00000+0  43424-2 0  9995
2 49301  87.5177 210.0535 0005081 117.3595  41.4041 14.88710253 38526
ONEWEB-0376             
1 49302U 21090Z   22171.91667824 -.00009643  00000+0 -24143-1 0  9994
2 49302  87.9234 234.5584 0001883 102.5241 279.4739 13.19728641 35538
ONEWEB-0377             
1 49303U 21090AA  22171.91667824  .00042414  00000+0  45172-2 0  9992
2 49303  87.5161 210.1237 0003826 101.2826 123.1515 14.88713566 38507
ONEWEB-0378             
1 49304U 21090AB  22171.91667824 -.01608605  00000+0 -66935+0 0  9993
2 49304  87.4598 205.7243 0005961 114.9171 103.0931 14.30262974 38557
ONEWEB-0379             
1 49305U 21090AC  22171.58334491  .00031576  00000+0  84864-1 0  9995
2 49305  87.9071 219.4168 0001807  97.2798 139.7101 13.14486452  1308
ONEWEB-0380             
1 49306U 21090AD  22171.91667824 -.00009782  00000+0 -24492-1 0  9999
2 49306  87.9234 234.5645 0002409 103.0215 293.6136 13.19728752 35501
ONEWEB-0381             
1 49307U 21090AE  22171.91667824 -.01232293  00000+0 -49037+0 0  9996
2 49307  87.4909 205.9119 0003859 106.7108 127.9868 14.32181655 38522
ONEWEB-0382             
1 49308U 21090AF  22171.91667824 -.01262277  00000+0 -54299+0 0  9998
2 49308  87.4986 205.8273 0004062 112.8227 129.5641 14.28251959 38533
ONEWEB-0383             
1 49309U 21090AG  22171.58334491  .00031486  00000+0  84621-1 0  9990
2 49309  87.9060 219.3633 0001811  89.2273 153.0498 13.14489174  1302
ONEWEB-0384             
1 49310U 21090AH  22171.91667824 -.01215975  00000+0 -50601+0 0  9997
2 49310  87.5035 205.8055 0004286 118.0369 174.0947 14.29836176 38538
ONEWEB-0385             
1 49311U 21090AJ  22171.91667824 -.01198966  00000+0 -51743+0 0  9996
2 49311  87.5185 205.7190 0004175 114.7888  23.7156 14.27904934 38538
